OBJECT_NAME,OBJECT_ID,EPOCH,MEAN_MOTION,ECCENTRICITY,INCLINATION,RA_OF_ASC_NODE,ARG_OF_PERICENTER,MEAN_ANOMALY,EPHEMERIS_TYPE,CLASSIFICATION_TYPE,NORAD_CAT_ID,ELEMENT_SET_NO,REV_AT_EPOCH,BSTAR,MEAN_MOTION_DOT,MEAN_MOTION_DDOT
QIANFAN-208,2026-153H,2026-07-18T19:49:00.503328,14.25462867,.0008659,88.9926,358.6292,172.2142,187.9187,0,U,69807,999,206,.61508E-4,.16E-5,0
QIANFAN-209,2026-153J,2026-07-18T19:58:14.405088,14.23086808,.0007791,88.9926,358.6302,168.7667,191.3700,0,U,69808,999,206,.54604E-4,.138E-5,0
QIANFAN-210,2026-153K,2026-07-18T19:53:04.159104,14.23252900,.0008338,88.9927,358.6297,171.4616,188.6719,0,U,69809,999,206,.50091E-4,.128E-5,0
QIANFAN-211,2026-153L,2026-07-18T19:52:09.501600,14.23382425,.0007959,88.9926,358.6295,168.4891,191.6485,0,U,69810,999,206,.45419E-4,.118E-5,0
QIANFAN-212,2026-153M,2026-07-18T04:32:30.888096,14.22682297,.00122,88.9888,358.7049,152.0967,208.0882,0,U,69811,999,197,-.9754E+0,-.201872E-1,0
QIANFAN-213,2026-153N,2026-07-17T21:48:21.509856,14.21939575,.0007827,88.9917,358.7338,155.5754,204.5809,0,U,69812,999,193,-.98228E+0,-.2004805E-1,0
QIANFAN-214,2026-153P,2026-07-18T19:41:40.007616,14.26672610,.0008124,88.9926,358.6285,171.5236,188.6097,0,U,69813,999,206,.19025E-4,.61E-6,0
QIANFAN-215,2026-153Q,2026-07-18T19:41:34.617984,14.26719051,.0008338,88.9925,358.6282,173.8358,186.2940,0,U,69814,999,206,.47483E-4,.13E-5,0
QIANFAN-216,2026-153R,2026-07-18T19:41:33.869760,14.26720243,.000832,88.9926,358.6284,173.7282,186.4018,0,U,69815,999,206,.52377E-4,.141E-5,0
QIANFAN-217,2026-153S,2026-07-18T19:40:50.888352,14.26768164,.0008009,88.9925,358.6282,170.3536,189.7814,0,U,69816,999,206,.14313E-4,.49E-6,0
QIANFAN-218,2026-153T,2026-07-18T19:40:14.444832,14.26811327,.0007783,88.9928,358.6286,167.6606,192.4780,0,U,69817,999,206,.44758E-4,.123E-5,0
CZ-6A R/B,2026-153U,2026-07-18T19:57:39.718944,14.53449598,.008698,89.0167,358.5483,74.8624,286.2185,0,U,69818,999,210,.32194E-4,.16E-5,0
STARLINK-37520,2026-154A,2026-07-18T20:00:01.999008,15.80899616,.0001122,53.1577,274.7204,72.9447,126.1662,0,U,69819,999,325,-.33625E-3,-.66635E-3,0
STARLINK-37553,2026-154B,2026-07-18T20:00:01.999008,15.80921241,.000096,53.1577,274.7110,83.1553,120.2191,0,U,69820,999,325,-.50586E-3,-.99616E-3,0
STARLINK-37561,2026-154C,2026-07-18T20:00:01.999008,15.80912201,.0001041,53.1579,274.7020,83.3816,124.2647,0,U,69821,999,325,-.39439E-3,-.7798E-3,0
STARLINK-37521,2026-154D,2026-07-18T20:00:01.999008,15.80926231,.0001021,53.1578,274.6934,79.4419,132.4728,0,U,69822,999,325,-.53627E-3,-.105516E-2,0
STARLINK-37628,2026-154E,2026-07-18T20:00:01.999008,15.80912469,.000103,53.1581,274.6846,78.6516,137.5374,0,U,69823,999,325,-.38161E-3,-.75498E-3,0
STARLINK-37695,2026-154F,2026-07-18T20:00:01.999008,15.80914764,.0000661,53.1582,274.6028,97.7886,157.9583,0,U,69824,999,325,-.45287E-3,-.8933E-3,0
STARLINK-37690,2026-154G,2026-07-18T20:00:01.999008,15.80909449,.0001133,53.1581,274.6671,90.0708,134.6588,0,U,69825,999,325,-.34127E-3,-.67643E-3,0
STARLINK-37710,2026-154H,2026-07-18T20:00:01.999008,15.80928315,.0000939,53.1581,274.6581,86.1513,142.8493,0,U,69826,999,325,-.53974E-3,-.106195E-2,0
STARLINK-38031,2026-154J,2026-07-18T20:00:01.999008,15.80924728,.0000976,53.1581,274.6490,77.8312,155.4399,0,U,69827,999,325,-.50877E-3,-.100195E-2,0
STARLINK-38001,2026-154K,2026-07-18T20:00:01.999008,15.80920584,.0001001,53.1583,274.6404,80.7011,156.8457,0,U,69828,999,325,-.48947E-3,-.96444E-3,0
STARLINK-37622,2026-154L,2026-07-18T20:00:01.999008,15.80930171,.0001152,53.1582,274.6314,79.8961,161.9194,0,U,69829,999,325,-.56471E-3,-.111027E-2,0
STARLINK-37621,2026-154M,2026-07-18T20:00:01.999008,15.80930471,.0000952,53.1581,274.6228,85.3254,160.7645,0,U,69830,999,325,-.59797E-3,-.117437E-2,0
STARLINK-37918,2026-154N,2026-07-18T20:00:01.999008,15.80917517,.0001083,53.1581,274.6137,78.4679,171.8973,0,U,69831,999,325,-.48116E-3,-.94824E-3,0
STARLINK-37887,2026-154P,2026-07-18T20:00:01.999008,15.80925444,.0000929,53.1581,274.6048,69.5603,185.0735,0,U,69832,999,325,-.54031E-3,-.106292E-2,0
STARLINK-37624,2026-154Q,2026-07-18T20:00:01.999008,15.80928449,.0001142,53.1580,274.5959,76.0129,182.8901,0,U,69833,999,325,-.55512E-3,-.109168E-2,0
STARLINK-37769,2026-154R,2026-07-18T20:00:01.999008,15.80923245,.0001183,53.1579,274.5871,73.3829,189.7956,0,U,69834,999,325,-.57105E-3,-.112215E-2,0
STARLINK-37247,2026-154S,2026-07-18T20:00:01.999008,15.80925729,.0001012,53.1580,274.5783,79.2593,188.1843,0,U,69835,999,335,-.49861E-3,-.98234E-3,0
STARLINK-37569,2026-154T,2026-07-18T20:00:01.999008,15.80926724,.0001133,53.1581,274.5698,84.3303,187.3880,0,U,69836,999,325,-.54295E-3,-.106809E-2,0
