QIANFAN-208             
1 69807U 26153H   26199.82570027  .00000160  00000+0  61508-4 0  9995
2 69807  88.9926 358.6292 0008659 172.2142 187.9187 14.25462867  2060
QIANFAN-209             
1 69808U 26153J   26199.83211117  .00000138  00000+0  54604-4 0  9993
2 69808  88.9926 358.6302 0007791 168.7667 191.3700 14.23086808  2066
QIANFAN-210             
1 69809U 26153K   26199.82852036  .00000128  00000+0  50091-4 0  9999
2 69809  88.9927 358.6297 0008338 171.4616 188.6719 14.23252900  2061
QIANFAN-211             
1 69810U 26153L   26199.82788775  .00000118  00000+0  45419-4 0  9996
2 69810  88.9926 358.6295 0007959 168.4891 191.6485 14.23382425  2069
QIANFAN-212             
1 69811U 26153M   26199.18924639 -.02018720  00000+0 -97540+0 0  9996
2 69811  88.9888 358.7049 0012200 152.0967 208.0882 14.22682297  1975
QIANFAN-213             
1 69812U 26153N   26198.90858229 -.02004805  00000+0 -98228+0 0  9990
2 69812  88.9917 358.7338 0007827 155.5754 204.5809 14.21939575  1930
QIANFAN-214             
1 69813U 26153P   26199.82060194  .00000061  00000+0  19025-4 0  9998
2 69813  88.9926 358.6285 0008124 171.5236 188.6097 14.26672610  2060
QIANFAN-215             
1 69814U 26153Q   26199.82053956  .00000130  00000+0  47483-4 0  9993
2 69814  88.9925 358.6282 0008338 173.8358 186.2940 14.26719051  2066
QIANFAN-216             
1 69815U 26153R   26199.82053090  .00000141  00000+0  52377-4 0  9993
2 69815  88.9926 358.6284 0008320 173.7282 186.4018 14.26720243  2069
QIANFAN-217             
1 69816U 26153S   26199.82003343  .00000049  00000+0  14313-4 0  9995
2 69816  88.9925 358.6282 0008009 170.3536 189.7814 14.26768164  2060
QIANFAN-218             
1 69817U 26153T   26199.81961163  .00000123  00000+0  44758-4 0  9997
2 69817  88.9928 358.6286 0007783 167.6606 192.4780 14.26811327  2066
CZ-6A R/B               
1 69818U 26153U   26199.83170971  .00000160  00000+0  32194-4 0  9991
2 69818  89.0167 358.5483 0086980  74.8624 286.2185 14.53449598  2100
STARLINK-37520          
1 69819U 26154A   26199.83335647 -.00066635  00000+0 -33625-3 0  9996
2 69819  53.1577 274.7204 0001122  72.9447 126.1662 15.80899616  3255
STARLINK-37553          
1 69820U 26154B   26199.83335647 -.00099616  00000+0 -50586-3 0  9998
2 69820  53.1577 274.7110 0000960  83.1553 120.2191 15.80921241  3256
STARLINK-37561          
1 69821U 26154C   26199.83335647 -.00077980  00000+0 -39439-3 0  9993
2 69821  53.1579 274.7020 0001041  83.3816 124.2647 15.80912201  3250
STARLINK-37521          
1 69822U 26154D   26199.83335647 -.00105516  00000+0 -53627-3 0  9996
2 69822  53.1578 274.6934 0001021  79.4419 132.4728 15.80926231  3255
STARLINK-37628          
1 69823U 26154E   26199.83335647 -.00075498  00000+0 -38161-3 0  9998
2 69823  53.1581 274.6846 0001030  78.6516 137.5374 15.80912469  3252
STARLINK-37695          
1 69824U 26154F   26199.83335647 -.00089330  00000+0 -45287-3 0  9996
2 69824  53.1582 274.6028 0000661  97.7886 157.9583 15.80914764  3255
STARLINK-37690          
1 69825U 26154G   26199.83335647 -.00067643  00000+0 -34127-3 0  9991
2 69825  53.1581 274.6671 0001133  90.0708 134.6588 15.80909449  3254
STARLINK-37710          
1 69826U 26154H   26199.83335647 -.00106195  00000+0 -53974-3 0  9999
2 69826  53.1581 274.6581 0000939  86.1513 142.8493 15.80928315  3257
STARLINK-38031          
1 69827U 26154J   26199.83335647 -.00100195  00000+0 -50877-3 0  9993
2 69827  53.1581 274.6490 0000976  77.8312 155.4399 15.80924728  3251
STARLINK-38001          
1 69828U 26154K   26199.83335647 -.00096444  00000+0 -48947-3 0  9990
2 69828  53.1583 274.6404 0001001  80.7011 156.8457 15.80920584  3254
STARLINK-37622          
1 69829U 26154L   26199.83335647 -.00111027  00000+0 -56471-3 0  9997
2 69829  53.1582 274.6314 0001152  79.8961 161.9194 15.80930171  3252
STARLINK-37621          
1 69830U 26154M   26199.83335647 -.00117437  00000+0 -59797-3 0  9994
2 69830  53.1581 274.6228 0000952  85.3254 160.7645 15.80930471  3252
STARLINK-37918          
1 69831U 26154N   26199.83335647 -.00094824  00000+0 -48116-3 0  9992
2 69831  53.1581 274.6137 0001083  78.4679 171.8973 15.80917517  3255
STARLINK-37887          
1 69832U 26154P   26199.83335647 -.00106292  00000+0 -54031-3 0  9999
2 69832  53.1581 274.6048 0000929  69.5603 185.0735 15.80925444  3254
STARLINK-37624          
1 69833U 26154Q   26199.83335647 -.00109168  00000+0 -55512-3 0  9990
2 69833  53.1580 274.5959 0001142  76.0129 182.8901 15.80928449  3256
STARLINK-37769          
1 69834U 26154R   26199.83335647 -.00112215  00000+0 -57105-3 0  9998
2 69834  53.1579 274.5871 0001183  73.3829 189.7956 15.80923245  3255
STARLINK-37247          
1 69835U 26154S   26199.83335647 -.00098234  00000+0 -49861-3 0  9993
2 69835  53.1580 274.5783 0001012  79.2593 188.1843 15.80925729  3352
STARLINK-37569          
1 69836U 26154T   26199.83335647 -.00106809  00000+0 -54295-3 0  9999
2 69836  53.1581 274.5698 0001133  84.3303 187.3880 15.80926724  3256
